TEVEL2-5                
1 63214U 25052E   26068.96660006  .00021339  00000+0  71765-3 0  9991
2 63214  97.4013 325.3677 0004700  95.3936 264.7842 15.30817434 54919
STARLINK-34897          
1 65212U 25176Q   26068.53400495  .00029688  00000+0  10109-2 0  9994
2 65212  53.1581 153.6670 0001153  62.1896 297.9221 15.30186523 33092
